{"type":"FeatureCollection","features":[{"type":"Feature","id":0,"geometry":{"type":"Point","coordinates":[-113.46691566817356,53.674737191513714]},"properties":{"FID":0,"Id":0,"Name":"CFB Edmonton","Type":"Canadian Army"}},{"type":"Feature","id":1,"geometry":{"type":"Point","coordinates":[-111.17391480951788,50.272545432139538]},"properties":{"FID":1,"Id":0,"Name":"CFB Suffield","Type":"Canadian Army"}},{"type":"Feature","id":2,"geometry":{"type":"Point","coordinates":[-110.88758899964792,52.82449203601832]},"properties":{"FID":2,"Id":0,"Name":"CFB Wainwright","Type":"Canadian Army"}},{"type":"Feature","id":3,"geometry":{"type":"Point","coordinates":[-99.634640718672657,49.800573799212316]},"properties":{"FID":3,"Id":0,"Name":"CFB Shilo","Type":"Canadian Army"}},{"type":"Feature","id":4,"geometry":{"type":"Point","coordinates":[-66.454837787379731,45.839276225615293]},"properties":{"FID":4,"Id":0,"Name":"CFB Gagetown","Type":"Canadian Army"}},{"type":"Feature","id":5,"geometry":{"type":"Point","coordinates":[-76.446206153082557,44.251233663126087]},"properties":{"FID":5,"Id":0,"Name":"CFB Kingston","Type":"Canadian Army"}},{"type":"Feature","id":6,"geometry":{"type":"Point","coordinates":[-77.290176480243517,45.909117731969694]},"properties":{"FID":6,"Id":0,"Name":"CFB Borden","Type":"Canadian Army"}},{"type":"Feature","id":7,"geometry":{"type":"Point","coordinates":[-73.521519591501544,45.578790265617577]},"properties":{"FID":7,"Id":0,"Name":"Garrison Petawawa","Type":"Canadian Army"}},{"type":"Feature","id":8,"geometry":{"type":"Point","coordinates":[-71.489331013875272,46.885085241600301]},"properties":{"FID":8,"Id":0,"Name":"CFB Montreal","Type":"Canadian Army"}},{"type":"Feature","id":9,"geometry":{"type":"Point","coordinates":[-79.894099534842752,44.289696023113635]},"properties":{"FID":9,"Id":0,"Name":"CFB Valcartier","Type":"Canadian Army"}},{"type":"Feature","id":10,"geometry":{"type":"Point","coordinates":[-123.4266308964352,48.430420763514078]},"properties":{"FID":10,"Id":0,"Name":"CFB Esquimalt","Type":"Royal Canadian Navy"}},{"type":"Feature","id":11,"geometry":{"type":"Point","coordinates":[-63.594192261720259,44.660109388281398]},"properties":{"FID":11,"Id":0,"Name":"CFB Halifax","Type":"Royal Canadian Navy"}},{"type":"Feature","id":12,"geometry":{"type":"Point","coordinates":[-52.694830282648866,47.582583891700615]},"properties":{"FID":12,"Id":0,"Name":"CFB St. John's","Type":"Royal Canadian Navy"}},{"type":"Feature","id":13,"geometry":{"type":"Point","coordinates":[-84.548294651217134,73.068261360387709]},"properties":{"FID":13,"Id":0,"Name":"Naval Facility Nanisivik","Type":"Royal Canadian Navy"}},{"type":"Feature","id":14,"geometry":{"type":"Point","coordinates":[-110.28278484066129,54.404892373429732]},"properties":{"FID":14,"Id":0,"Name":"CFB Cold Lake","Type":"Royal Canadian Airforce"}},{"type":"Feature","id":15,"geometry":{"type":"Point","coordinates":[-124.89629240663452,49.716149018176608]},"properties":{"FID":15,"Id":0,"Name":"CFB Comox","Type":"Royal Canadian Airforce"}},{"type":"Feature","id":16,"geometry":{"type":"Point","coordinates":[-97.250994591394871,49.894616586361217]},"properties":{"FID":16,"Id":0,"Name":"CFB Winnipeg","Type":"Royal Canadian Airforce"}},{"type":"Feature","id":17,"geometry":{"type":"Point","coordinates":[-54.581532484755925,48.944410907601998]},"properties":{"FID":17,"Id":0,"Name":"CFB Gander","Type":"Royal Canadian Airforce"}},{"type":"Feature","id":18,"geometry":{"type":"Point","coordinates":[-60.413051203523807,53.312641262479815]},"properties":{"FID":18,"Id":0,"Name":"CFB Goose Bay","Type":"Royal Canadian Airforce"}},{"type":"Feature","id":19,"geometry":{"type":"Point","coordinates":[-64.911436287228341,44.983517255418782]},"properties":{"FID":19,"Id":0,"Name":"CFB Greenwood","Type":"Royal Canadian Airforce"}},{"type":"Feature","id":20,"geometry":{"type":"Point","coordinates":[-76.448272605117396,44.242739901015916]},"properties":{"FID":20,"Id":0,"Name":"CFB Kingston","Type":"Royal Canadian Airforce"}},{"type":"Feature","id":21,"geometry":{"type":"Point","coordinates":[-79.413459220172243,46.359236073497897]},"properties":{"FID":21,"Id":0,"Name":"CFB North Bay","Type":"Royal Canadian Airforce"}},{"type":"Feature","id":22,"geometry":{"type":"Point","coordinates":[-77.52982103910351,44.116263261891064]},"properties":{"FID":22,"Id":0,"Name":"CFB Trenton","Type":"Royal Canadian Airforce"}},{"type":"Feature","id":23,"geometry":{"type":"Point","coordinates":[-70.98976347978747,48.339304347892813]},"properties":{"FID":23,"Id":0,"Name":"CFB Bagotville","Type":"Royal Canadian Airforce"}},{"type":"Feature","id":24,"geometry":{"type":"Point","coordinates":[-105.55607351241909,50.337363313157418]},"properties":{"FID":24,"Id":0,"Name":"CFB Moose Jaw","Type":"Royal Canadian Airforce"}},{"type":"Feature","id":25,"geometry":{"type":"Point","coordinates":[-114.37542250998303,62.455835790790545]},"properties":{"FID":25,"Id":0,"Name":"CFNA HQ Yellowknife","Type":"All Services"}},{"type":"Feature","id":26,"geometry":{"type":"Point","coordinates":[-62.345389050562552,82.49836427716069]},"properties":{"FID":26,"Id":0,"Name":"CFS Alert","Type":"All Services"}},{"type":"Feature","id":27,"geometry":{"type":"Point","coordinates":[-75.849304398370862,45.348984959234642]},"properties":{"FID":27,"Id":0,"Name":"DND HQ Ottawa","Type":"All Services"}},{"type":"Feature","id":28,"geometry":{"type":"Point","coordinates":[-75.68928011419662,45.423468867041883]},"properties":{"FID":28,"Id":0,"Name":"DND HQ Carling","Type":"All Services"}},{"type":"Feature","id":29,"geometry":{"type":"Point","coordinates":[-75.588402060664166,45.336729238886434]},"properties":{"FID":29,"Id":0,"Name":"CFS Leitrim","Type":"All Services"}},{"type":"Feature","id":30,"geometry":{"type":"Point","coordinates":[-75.901439327910424,45.360184700357081]},"properties":{"FID":30,"Id":0,"Name":"Connaught Range and Primary Training Centre","Type":"All Services"}},{"type":"Feature","id":31,"geometry":{"type":"Point","coordinates":[-71.206654598802558,46.807219534144409]},"properties":{"FID":31,"Id":0,"Name":"Citadelle of Quebec","Type":"All Services"}},{"type":"Feature","id":32,"geometry":{"type":"Point","coordinates":[-73.2878823367313,45.300384121845816]},"properties":{"FID":32,"Id":0,"Name":"Canadian Forces Leadership and Recruit School","Type":"All Services"}},{"type":"Feature","id":33,"geometry":{"type":"Point","coordinates":[-134.95306889834004,60.597338974607887]},"properties":{"FID":33,"Id":0,"Name":"CFNA HQ Whitehorse","Type":"All Services"}}]}