{"type":"FeatureCollection","features":[{"type":"Feature","id":1,"geometry":{"type":"Point","coordinates":[-113.4669156684934,53.674737191671973]},"properties":{"OBJECTID":1,"Id":0,"Name":"CFB Edmonton","Type":"Canadian Army"}},{"type":"Feature","id":2,"geometry":{"type":"Point","coordinates":[-111.17391480960498,50.272545432330062]},"properties":{"OBJECTID":2,"Id":0,"Name":"CFB Suffield","Type":"Canadian Army"}},{"type":"Feature","id":3,"geometry":{"type":"Point","coordinates":[-110.887588999337,52.824492035928465]},"properties":{"OBJECTID":3,"Id":0,"Name":"CFB Wainwright","Type":"Canadian Army"}},{"type":"Feature","id":4,"geometry":{"type":"Point","coordinates":[-99.634640718911598,49.800573799211122]},"properties":{"OBJECTID":4,"Id":0,"Name":"CFB Shilo","Type":"Canadian Army"}},{"type":"Feature","id":5,"geometry":{"type":"Point","coordinates":[-66.454837787014043,45.839276225524799]},"properties":{"OBJECTID":5,"Id":0,"Name":"CFB Gagetown","Type":"Canadian Army"}},{"type":"Feature","id":6,"geometry":{"type":"Point","coordinates":[-76.446206152734305,44.251233662811124]},"properties":{"OBJECTID":6,"Id":0,"Name":"CFB Kingston","Type":"Canadian Army"}},{"type":"Feature","id":7,"geometry":{"type":"Point","coordinates":[-77.290176480216942,45.909117731659812]},"properties":{"OBJECTID":7,"Id":0,"Name":"Garrison Petawawa","Type":"Canadian Army"}},{"type":"Feature","id":8,"geometry":{"type":"Point","coordinates":[-73.521519591738354,45.578790265570554]},"properties":{"OBJECTID":8,"Id":0,"Name":"CFB Montreal","Type":"Canadian Army"}},{"type":"Feature","id":9,"geometry":{"type":"Point","coordinates":[-71.489331013728176,46.885085241827298]},"properties":{"OBJECTID":9,"Id":0,"Name":"CFB Valcartier","Type":"Canadian Army"}},{"type":"Feature","id":10,"geometry":{"type":"Point","coordinates":[-79.89409953479057,44.289696023246684]},"properties":{"OBJECTID":10,"Id":0,"Name":"CFB Borden","Type":"Canadian Army"}},{"type":"Feature","id":11,"geometry":{"type":"Point","coordinates":[-123.42663089625111,48.430420763297256]},"properties":{"OBJECTID":11,"Id":0,"Name":"CFB Esquimalt","Type":"Royal Canadian Navy"}},{"type":"Feature","id":12,"geometry":{"type":"Point","coordinates":[-63.594192261861849,44.660109388536796]},"properties":{"OBJECTID":12,"Id":0,"Name":"CFB Halifax","Type":"Royal Canadian Navy"}},{"type":"Feature","id":13,"geometry":{"type":"Point","coordinates":[-52.69483028262691,47.582583891505621]},"properties":{"OBJECTID":13,"Id":0,"Name":"CFB St. John's","Type":"Royal Canadian Navy"}},{"type":"Feature","id":14,"geometry":{"type":"Point","coordinates":[-84.548294651099027,73.068261360388874]},"properties":{"OBJECTID":14,"Id":0,"Name":"Naval Facility Nanisivik","Type":"Royal Canadian Navy"}},{"type":"Feature","id":15,"geometry":{"type":"Point","coordinates":[-110.28278484042265,54.404892373581141]},"properties":{"OBJECTID":15,"Id":0,"Name":"CFB Cold Lake","Type":"Royal Canadian Airforce"}},{"type":"Feature","id":16,"geometry":{"type":"Point","coordinates":[-124.89629240686489,49.716149018417141]},"properties":{"OBJECTID":16,"Id":0,"Name":"CFB Comox","Type":"Royal Canadian Airforce"}},{"type":"Feature","id":17,"geometry":{"type":"Point","coordinates":[-97.25099459181277,49.894616586126247]},"properties":{"OBJECTID":17,"Id":0,"Name":"CFB Winnipeg","Type":"Royal Canadian Airforce"}},{"type":"Feature","id":18,"geometry":{"type":"Point","coordinates":[-54.5815324845803,48.944410907549205]},"properties":{"OBJECTID":18,"Id":0,"Name":"CFB Gander","Type":"Royal Canadian Airforce"}},{"type":"Feature","id":19,"geometry":{"type":"Point","coordinates":[-60.41305120312645,53.312641262417159]},"properties":{"OBJECTID":19,"Id":0,"Name":"CFB Goose Bay","Type":"Royal Canadian Airforce"}},{"type":"Feature","id":20,"geometry":{"type":"Point","coordinates":[-64.911436287639063,44.983517255189497]},"properties":{"OBJECTID":20,"Id":0,"Name":"CFB Greenwood","Type":"Royal Canadian Airforce"}},{"type":"Feature","id":21,"geometry":{"type":"Point","coordinates":[-76.448272604874546,44.242739901107463]},"properties":{"OBJECTID":21,"Id":0,"Name":"CFB Kingston","Type":"Royal Canadian Airforce"}},{"type":"Feature","id":22,"geometry":{"type":"Point","coordinates":[-79.413459219974882,46.359236073716829]},"properties":{"OBJECTID":22,"Id":0,"Name":"CFB North Bay","Type":"Royal Canadian Airforce"}},{"type":"Feature","id":23,"geometry":{"type":"Point","coordinates":[-77.529821039403274,44.116263262206807]},"properties":{"OBJECTID":23,"Id":0,"Name":"CFB Trenton","Type":"Royal Canadian Airforce"}},{"type":"Feature","id":24,"geometry":{"type":"Point","coordinates":[-70.989763479743729,48.339304347876975]},"properties":{"OBJECTID":24,"Id":0,"Name":"CFB Bagotville","Type":"Royal Canadian Airforce"}},{"type":"Feature","id":25,"geometry":{"type":"Point","coordinates":[-105.55607351206116,50.337363312903328]},"properties":{"OBJECTID":25,"Id":0,"Name":"CFB Moose Jaw","Type":"Royal Canadian Airforce"}},{"type":"Feature","id":26,"geometry":{"type":"Point","coordinates":[-114.37542251019116,62.455835790632449]},"properties":{"OBJECTID":26,"Id":0,"Name":"CFNA HQ Yellowknife","Type":"All Services"}},{"type":"Feature","id":27,"geometry":{"type":"Point","coordinates":[-62.345389050408436,82.498364277144788]},"properties":{"OBJECTID":27,"Id":0,"Name":"CFS Alert","Type":"All Services"}},{"type":"Feature","id":28,"geometry":{"type":"Point","coordinates":[-75.849304398814184,45.348984959229711]},"properties":{"OBJECTID":28,"Id":0,"Name":"DND HQ Ottawa","Type":"All Services"}},{"type":"Feature","id":29,"geometry":{"type":"Point","coordinates":[-75.689280114000653,45.423468866826141]},"properties":{"OBJECTID":29,"Id":0,"Name":"DND HQ Carling","Type":"All Services"}},{"type":"Feature","id":30,"geometry":{"type":"Point","coordinates":[-75.588402060930378,45.336729239018744]},"properties":{"OBJECTID":30,"Id":0,"Name":"CFS Leitrim","Type":"All Services"}},{"type":"Feature","id":31,"geometry":{"type":"Point","coordinates":[-75.901439328273923,45.360184700489398]},"properties":{"OBJECTID":31,"Id":0,"Name":"Connaught Range and Primary Training Centre","Type":"All Services"}},{"type":"Feature","id":32,"geometry":{"type":"Point","coordinates":[-71.206654598522178,46.807219533849761]},"properties":{"OBJECTID":32,"Id":0,"Name":"Citadelle of Quebec","Type":"All Services"}},{"type":"Feature","id":33,"geometry":{"type":"Point","coordinates":[-73.287882336351529,45.300384121593545]},"properties":{"OBJECTID":33,"Id":0,"Name":"Canadian Forces Leadership and Recruit School","Type":"All Services"}},{"type":"Feature","id":34,"geometry":{"type":"Point","coordinates":[-134.95306889876423,60.597338974531553]},"properties":{"OBJECTID":34,"Id":0,"Name":"CFNA HQ Whitehorse","Type":"All Services"}}]}